GOMX-4A                 
1 43197U 18015F   19068.12597894  .00000343  00000-0  17091-4 0  9990
2 43197  97.3747 197.2287 0017773 309.9012 137.0215 15.23922888 60887
1KUNS-PF                
1 43466U 98067NP  19067.57369986  .00015932  00000-0  18199-3 0  9990
2 43466  51.6378 131.3249 0001390  36.9059 323.2030 15.62360621 46930
UBAKUSAT                
1 43467U 98067NQ  19067.66357296  .00010711  00000-0  13417-3 0  9990
2 43467  51.6375 132.6697 0003129  41.3629 318.7601 15.60364442 46930
BATSU-CS1 (IRAZU)       
1 43468U 98067NR  19067.57650105  .00020363  00000-0  21732-3 0  9999
2 43468  51.6373 129.8374 0001537  29.2564 330.8517 15.63914058146943
CUBERRT                 
1 43546U 98067NU  19067.57422674  .00022890  00000-0  27407-3 0  9996
2 43546  51.6377 135.0662 0005575  98.8226 261.3399 15.60845314 37025
TEMPEST-D               
1 43547U 98067NV  19067.82631897  .00003865  00000-0  59781-4 0  9996
2 43547  51.6382 136.7446 0006210 100.4906 259.6786 15.56755953 36700
RAINCUBE                
1 43548U 98067NW  19067.82157299  .00009835  00000-0  13052-3 0  9999
2 43548  51.6373 135.2122 0005751 105.5036 254.6592 15.58929404 37173
HALOSAT                 
1 43549U 98067NX  19067.56588910  .00011736  00000-0  15465-3 0  9992
2 43549  51.6375 136.5080 0005627 108.1271 252.0335 15.58898509 36699
ENDUROSAT ONE           
1 43551U 98067NZ  19067.54156861  .00014206  00000-0  17899-3 0  9997
2 43551  51.6380 135.5975 0005825 113.9515 246.2088 15.59886905 37111
EQUISAT                 
1 43552U 98067PA  19067.58736586  .00010901  00000-0  14254-3 0  9990
2 43552  51.6390 135.9103 0006269 115.0652 245.0992 15.59190984 37079
AEROCUBE 12A            
1 43556U 18046C   19067.72574749  .00002171  00000-0  90112-4 0  9998
2 43556  51.6424 185.6490 0008865  67.4931 292.6987 15.28373015 35968
AEROCUBE 12B            
1 43557U 18046D   19067.73202393  .00001991  00000-0  83931-4 0  9993
2 43557  51.6422 185.6887 0008857  67.9199 292.2721 15.28284916 35917
UITMSAT-1               
1 43589U 98067PD  19067.58833253  .00011942  00000-0  15653-3 0  9999
2 43589  51.6367 136.6461 0005392 122.1660 237.9856 15.59020250 32805
MAYA-1                  
1 43590U 98067PE  19067.45661770  .00013677  00000-0  17815-3 0  9999
2 43590  51.6372 137.2671 0005533 122.5128 237.6400 15.59042531 32711
BHUTAN-1                
1 43591U 98067PF  19067.57899886  .00011610  00000-0  15194-3 0  9997
2 43591  51.6378 136.5927 0005679 123.7555 236.3979 15.59094117 32738
SIRIUSSAT-1             
1 43595U 98067PG  19067.71111831  .00010985  00000-0  14757-3 0  9992
2 43595  51.6368 136.7162 0003968  76.7880 283.3554 15.58465813 31926
SIRIUSSAT-2             
1 43596U 98067PH  19067.73092824  .00011359  00000-0  15325-3 0  9993
2 43596  51.6377 136.8699 0004548  79.1716 280.9789 15.58306911 31929
TANUSHA-3               
1 43597U 98067PJ  19067.80634155  .00014183  00000-0  18368-3 0  9999
2 43597  51.6364 135.8318 0003786  89.4372 270.7054 15.59164624 31946
SURFSAT                 
1 43614U 18070B   19067.65899955  .00002510  00000-0  69280-4 0  9990
2 43614  93.0365 321.5394 0015727 349.6276  10.4650 15.37045205 26738
CP7 (DAVE)              
1 43615U 18070C   19067.66056809  .00002351  00000-0  65014-4 0  9999
2 43615  93.0367 321.5409 0015731 349.2745  10.8170 15.36998684 26738
ELFIN-B                 
1 43616U 18070D   19068.15770770  .00003503  00000-0  95473-4 0  9997
2 43616  93.0326 321.6813 0016752 350.2438   9.8487 15.37395242 26819
ELFIN-A                 
1 43617U 18070E   19068.15382634  .00003525  00000-0  96015-4 0  9993
2 43617  93.0380 321.8160 0015638 347.5493  12.5371 15.37432609 26811
CUBEBEL-1 (BSUSAT-1)    
1 43666U 18083E   19068.13636230  .00001007  00000-0  53781-4 0  9999
2 43666  97.5296  93.2688 0015350 174.8015 272.8103 15.17347280 19888
DEBRISSAT-2             
1 43680U 98067PR  19067.87610398  .00015761  00000-0  20343-3 0  9991
2 43680  51.6401 135.5665 0003372 105.8945 254.2352 15.59158508 40697
CICERO 10               
1 43690U 18088A   19067.88430444  .00001071  00000-0  48608-4 0  9994
2 43690  85.0400  25.5102 0013708 214.1196 145.9165 15.19443167 17874
IRVINE01                
1 43693U 18088D   19068.17654347  .00002176  00000-0  96295-4 0  9992
2 43693  85.0381  25.1219 0017566 199.1081 160.9503 15.20913229 17934
PROXIMA I               
1 43694U 18088E   19067.68328236  .00000998  00000-0  42778-4 0  9990
2 43694  85.0344  25.3403 0018830 192.5349 167.5427 15.21188683 17869
PROXIMA II              
1 43696U 18088G   19067.88014793  .00000984  00000-0  42131-4 0  9992
2 43696  85.0345  25.2108 0018891 191.7595 168.3208 15.21194805 17896
FACSAT-1                
1 43721U 18096C   19068.17134453  .00001181  00000-0  48743-4 0  9994
2 43721  97.4704 138.1691 0017345 332.3436  27.6878 15.25962078 15259
CENTAURI-2              
1 43722U 18096D   19068.16430161  .00001710  00000-0  68925-4 0  9991
2 43722  97.4702 138.1786 0017446 333.1282  26.9051 15.26109228 15248
SIRION PATHFINDER-2     
1 43759U 18099B   19068.19140706  .00000040  00000-0  89321-5 0  9999
2 43759  97.7546 141.3747 0013049 302.0342  57.9611 14.95076824 14253
CORVUS-BC 4             
1 43767U 18099K   19067.89196812  .00000271  00000-0  30358-4 0  9994
2 43767  97.7537 140.9781 0010536 307.6299  52.3964 14.94524678 14215
SHIELDS 1               
1 43850U 18104B   19067.60804487  .00000041  00000-0  00000-0 0  9999
2 43850  85.0297 123.9302 0014226 357.1274   2.9899 15.20981087 12503
STF-1                   
1 43852U 18104D   19067.57736519  .00000041  00000-0  00000+0 0  9996
2 43852  85.0316 124.0539 0015382   9.7738 350.3828 15.20379341 12494
LUME 1                  
1 43908U 18111AJ  19068.17466299  .00001136  00000-0  49370-4 0  9992
2 43908  97.2973 336.1639 0021689 354.4232   5.6761 15.24100756 10987
AOBA VELOX-IV           
1 43940U 19003J   19068.13994178  .00001730  00000-0  74912-4 0  9997
2 43940  97.2905 129.0144 0026731  72.2615 339.9053 15.23408522  7626
CATSAT-2                
1 44029U 98067PV  19067.77924198  .00009359  00000-0  14688-3 0  9995
2 44029  51.6390 140.1801 0005091 124.0379 236.1095 15.54418700  5715
DELPHINI                
1 44030U 98067PW  19068.10030245  .00009053  00000-0  14217-3 0  9995
2 44030  51.6385 138.5739 0004678 120.8183 239.3269 15.54448271  5735
UNITE                   
1 44031U 98067PX  19068.16586562  .00006150  00000-0  99512-4 0  9997
2 44031  51.6389 138.2618 0003512 116.7277 243.4073 15.54283023  5749
TECHEDSAT 8             
1 44032U 98067PY  19067.83412165  .00017891  00000-0  26676-3 0  9992
2 44032  51.6385 139.7965 0003209 106.5650 253.5693 15.55151848  5674
CATSAT-1                
1 44033U 98067PZ  19067.77906157  .00011353  00000-0  17664-3 0  9999
2 44033  51.6390 140.1795 0004918 122.0789 238.0680 15.54412125  5628
